10893,NAVSTAR 2 (OPS 5112),1978,714.19,-1.0,-,62.95,Inactive,0,MEO,USA,USA,Unknown,Unknown,Unknown,1 10893U 78047A   25123.25017135 -.00000010  00000+0  00000+0 0  9994,2 10893  62.9456 285.7131 0533165  43.0369 130.2892  2.01627170345463,2.0162717,0.0533165,MEO
11141,NAVSTAR 4 (OPS 5114),1978,746.52,-1.0,-,63.43,Inactive,0,MEO,USA,USA,Unknown,Unknown,Unknown,1 11141U 78112A   25123.82707100  .00000021  00000+0  00000+0 0  9996,2 11141  63.4346  83.9002 0140443  48.5235 170.6921  1.92895538221192,1.92895538,0.0140443,MEO
11690,NAVSTAR 5 (OPS 5117),1980,717.92,-1.0,-,64.5,Inactive,0,MEO,USA,USA,Unknown,Unknown,Unknown,1 11690U 80011A   25123.79915933 -.00000034  00000+0  00000+0 0  9992,2 11690  64.4955  61.1163 0481659 204.8426 348.4879  2.00580832345518,2.00580832,0.0481659,MEO
20061,NAVSTAR 14 (USA 38),1989,762.48,-1.0,-,53.54,Inactive,0,MEO,USA,USA,Unknown,Unknown,Unknown,1 20061U 89044A   25122.46369017 -.00000023  00000+0  00000+0 0  9996,2 20061  53.5370 254.6433 0026242 200.9591 140.4430  1.88858535254023,1.88858535,0.0026242,MEO
20185,NAVSTAR 15 (USA 42),1989,773.83,-1.0,-,54.69,Inactive,0,MEO,USA,USA,Unknown,Unknown,Unknown,1 20185U 89064A   25123.17086786  .00000032  00000+0  00000+0 0  9992,2 20185  54.6897 103.3755 0012692 313.5794 222.6409  1.86088028248575,1.86088028,0.0012692,MEO
14189,NAVSTAR 8 (OPS 9794),1983,751.1,-1.0,-,63.15,Inactive,0,MEO,USA,USA,Unknown,Unknown,Unknown,1 14189U 83072A   25122.23421777  .00000008  00000+0  00000+0 0  9994,2 14189  63.1475  80.6895 0214462  54.7616 122.8580  1.91719355218845,1.91719355,0.0214462,MEO
15039,NAVSTAR 9 (USA 1),1984,748.82,-1.0,-,63.28,Inactive,0,MEO,USA,USA,Unknown,Unknown,Unknown,1 15039U 84059A   25122.83324840  .00000000  00000+0  00000+0 0  9996,2 15039  63.2843  76.1351 0235530  52.0267 127.5634  1.92302635290234,1.92302635,0.023553,MEO
16129,NAVSTAR 11 (USA 10),1985,760.42,-1.0,-,63.33,Inactive,0,MEO,USA,USA,Unknown,Unknown,Unknown,1 16129U 85093A   25122.53103797  .00000038  00000+0  00000+0 0  9990,2 16129  63.3319  95.9621 0328166  54.3153  39.3379  1.89368827221523,1.89368827,0.0328166,MEO
