[
    {
        "OBJECT_NAME": "NAVSTAR 2 (OPS 5112)",
        "OBJECT_ID": "1978-047A",
        "EPOCH": "2025-05-03T06:00:14.804640",
        "MEAN_MOTION": 2.0162717,
        "ECCENTRICITY": 0.0533165,
        "INCLINATION": 62.9456,
        "RA_OF_ASC_NODE": 285.7131,
        "ARG_OF_PERICENTER": 43.0369,
        "MEAN_ANOMALY": 130.2892,
        "EPHEMERIS_TYPE": 0,
        "CLASSIFICATION_TYPE": "U",
        "NORAD_CAT_ID": 10893,
        "ELEMENT_SET_NO": 999,
        "REV_AT_EPOCH": 34546,
        "BSTAR": 0,
        "MEAN_MOTION_DOT": -1e-07,
        "MEAN_MOTION_DDOT": 0
    },
    {
        "OBJECT_NAME": "NAVSTAR 4 (OPS 5114)",
        "OBJECT_ID": "1978-112A",
        "EPOCH": "2025-05-03T19:50:58.934400",
        "MEAN_MOTION": 1.92895538,
        "ECCENTRICITY": 0.0140443,
        "INCLINATION": 63.4346,
        "RA_OF_ASC_NODE": 83.9002,
        "ARG_OF_PERICENTER": 48.5235,
        "MEAN_ANOMALY": 170.6921,
        "EPHEMERIS_TYPE": 0,
        "CLASSIFICATION_TYPE": "U",
        "NORAD_CAT_ID": 11141,
        "ELEMENT_SET_NO": 999,
        "REV_AT_EPOCH": 22119,
        "BSTAR": 0,
        "MEAN_MOTION_DOT": 2.1e-07,
        "MEAN_MOTION_DDOT": 0
    },
    {
        "OBJECT_NAME": "NAVSTAR 5 (OPS 5117)",
        "OBJECT_ID": "1980-011A",
        "EPOCH": "2025-05-03T19:10:47.366112",
        "MEAN_MOTION": 2.00580832,
        "ECCENTRICITY": 0.0481659,
        "INCLINATION": 64.4955,
        "RA_OF_ASC_NODE": 61.1163,
        "ARG_OF_PERICENTER": 204.8426,
        "MEAN_ANOMALY": 348.4879,
        "EPHEMERIS_TYPE": 0,
        "CLASSIFICATION_TYPE": "U",
        "NORAD_CAT_ID": 11690,
        "ELEMENT_SET_NO": 999,
        "REV_AT_EPOCH": 34551,
        "BSTAR": 0,
        "MEAN_MOTION_DOT": -3.4e-07,
        "MEAN_MOTION_DDOT": 0
    },
    {
        "OBJECT_NAME": "NAVSTAR 8 (OPS 9794)",
        "OBJECT_ID": "1983-072A",
        "EPOCH": "2025-05-02T05:37:16.415328",
        "MEAN_MOTION": 1.91719355,
        "ECCENTRICITY": 0.0214462,
        "INCLINATION": 63.1475,
        "RA_OF_ASC_NODE": 80.6895,
        "ARG_OF_PERICENTER": 54.7616,
        "MEAN_ANOMALY": 122.858,
        "EPHEMERIS_TYPE": 0,
        "CLASSIFICATION_TYPE": "U",
        "NORAD_CAT_ID": 14189,
        "ELEMENT_SET_NO": 999,
        "REV_AT_EPOCH": 21884,
        "BSTAR": 0,
        "MEAN_MOTION_DOT": 8e-08,
        "MEAN_MOTION_DDOT": 0
    },
    {
        "OBJECT_NAME": "NAVSTAR 9 (USA 1)",
        "OBJECT_ID": "1984-059A",
        "EPOCH": "2025-05-02T19:59:52.661760",
        "MEAN_MOTION": 1.92302635,
        "ECCENTRICITY": 0.023553,
        "INCLINATION": 63.2843,
        "RA_OF_ASC_NODE": 76.1351,
        "ARG_OF_PERICENTER": 52.0267,
        "MEAN_ANOMALY": 127.5634,
        "EPHEMERIS_TYPE": 0,
        "CLASSIFICATION_TYPE": "U",
        "NORAD_CAT_ID": 15039,
        "ELEMENT_SET_NO": 999,
        "REV_AT_EPOCH": 29023,
        "BSTAR": 0,
        "MEAN_MOTION_DOT": 0,
        "MEAN_MOTION_DDOT": 0
    },
    {
        "OBJECT_NAME": "NAVSTAR 11 (USA 10)",
        "OBJECT_ID": "1985-093A",
        "EPOCH": "2025-05-02T12:44:41.680608",
        "MEAN_MOTION": 1.89368827,
        "ECCENTRICITY": 0.0328166,
        "INCLINATION": 63.3319,
        "RA_OF_ASC_NODE": 95.9621,
        "ARG_OF_PERICENTER": 54.3153,
        "MEAN_ANOMALY": 39.3379,
        "EPHEMERIS_TYPE": 0,
        "CLASSIFICATION_TYPE": "U",
        "NORAD_CAT_ID": 16129,
        "ELEMENT_SET_NO": 999,
        "REV_AT_EPOCH": 22152,
        "BSTAR": 0,
        "MEAN_MOTION_DOT": 3.8e-07,
        "MEAN_MOTION_DDOT": 0
    },
    {
        "OBJECT_NAME": "NAVSTAR 14 (USA 38)",
        "OBJECT_ID": "1989-044A",
        "EPOCH": "2025-05-02T11:07:42.830688",
        "MEAN_MOTION": 1.88858535,
        "ECCENTRICITY": 0.0026242,
        "INCLINATION": 53.537,
        "RA_OF_ASC_NODE": 254.6433,
        "ARG_OF_PERICENTER": 200.9591,
        "MEAN_ANOMALY": 140.443,
        "EPHEMERIS_TYPE": 0,
        "CLASSIFICATION_TYPE": "U",
        "NORAD_CAT_ID": 20061,
        "ELEMENT_SET_NO": 999,
        "REV_AT_EPOCH": 25402,
        "BSTAR": 0,
        "MEAN_MOTION_DOT": -2.3e-07,
        "MEAN_MOTION_DDOT": 0
    },
    {
        "OBJECT_NAME": "NAVSTAR 15 (USA 42)",
        "OBJECT_ID": "1989-064A",
        "EPOCH": "2025-05-03T04:06:02.983104",
        "MEAN_MOTION": 1.86088028,
        "ECCENTRICITY": 0.0012692,
        "INCLINATION": 54.6897,
        "RA_OF_ASC_NODE": 103.3755,
        "ARG_OF_PERICENTER": 313.5794,
        "MEAN_ANOMALY": 222.6409,
        "EPHEMERIS_TYPE": 0,
        "CLASSIFICATION_TYPE": "U",
        "NORAD_CAT_ID": 20185,
        "ELEMENT_SET_NO": 999,
        "REV_AT_EPOCH": 24857,
        "BSTAR": 0,
        "MEAN_MOTION_DOT": 3.2e-07,
        "MEAN_MOTION_DDOT": 0
    }
]